
# Worst residual: 3.38 km
# MJD 60450.000000 (2024 May 20  0:00)
1967-040F = NORAD 02770 = Transtage 10
1 02770U 67040F   24141.49919926  .00000000  00000-0  00000-0 0 21820
2 02770 017.2571 233.9095 7959869 309.0325 186.4872 00.50946674    04

# Worst residual: 13.63 km
# MJD 60451.000000 (2024 May 21  0:00)
1967-040F = NORAD 02770 = Transtage 10
1 02770U 67040F   24142.49919926  .00000000  00000-0  00000-0 0 21821
2 02770 017.2653 233.8486 7959634 309.1140 009.8717 00.50935028    01

# Worst residual: 3.62 km
# MJD 60452.000000 (2024 May 22  0:00)
1967-040F = NORAD 02770 = Transtage 10
1 02770U 67040F   24143.49919926  .00000000  00000-0  00000-0 0 21822
2 02770 017.2680 233.7973 7959655 309.1843 193.2703 00.50947237    02

# Worst residual: 8.64 km
# MJD 60453.000000 (2024 May 23  0:00)
1967-040F = NORAD 02770 = Transtage 10
1 02770U 67040F   24144.49919926  .00000000  00000-0  00000-0 0 21823
2 02770 017.2791 233.7270 7958554 309.2789 016.6338 00.50949019    04

# Worst residual: 2.98 km
# MJD 60454.000000 (2024 May 24  0:00)
1967-040F = NORAD 02770 = Transtage 10
1 02770U 67040F   24145.49919926  .00000000  00000-0  00000-0 0 21824
2 02770 017.2820 233.6760 7958818 309.3535 200.0212 00.50949526    06

# Worst residual: 5.60 km
# MJD 60455.000000 (2024 May 25  0:00)
1967-040F = NORAD 02770 = Transtage 10
1 02770U 67040F   24146.49919926  .00000000  00000-0  00000-0 0 21825
2 02770 017.2879 233.6170 7956190 309.4372 023.3733 00.50961416    02

# Worst residual: 2.58 km
# MJD 60456.000000 (2024 May 26  0:00)
1967-040F = NORAD 02770 = Transtage 10
1 02770U 67040F   24147.49919926  .00000000  00000-0  00000-0 0 21826
2 02770 017.2872 233.5817 7956802 309.4972 206.7578 00.50953826    08

# Worst residual: 6.31 km
# MJD 60457.000000 (2024 May 27  0:00)
1967-040F = NORAD 02770 = Transtage 10
1 02770U 67040F   24148.49919926  .00000000  00000-0  00000-0 0 21827
2 02770 017.2839 233.5426 7953481 309.5556 030.1247 00.50960312    06

# Worst residual: 2.30 km
# MJD 60458.000000 (2024 May 28  0:00)
1967-040F = NORAD 02770 = Transtage 10
1 02770U 67040F   24149.49919926  .00000000  00000-0  00000-0 0 21828
2 02770 017.2860 233.4811 7955041 309.6354 213.5104 00.50956812    07

# Worst residual: 3.97 km
# MJD 60459.000000 (2024 May 29  0:00)
1967-040F = NORAD 02770 = Transtage 10
1 02770U 67040F   24150.49919926  .00000000  00000-0  00000-0 0 21820
2 02770 017.2850 233.4361 7953188 309.6980 036.9076 00.50948154    06

# Worst residual: 2.23 km
# MJD 60460.000000 (2024 May 30  0:00)
1967-040F = NORAD 02770 = Transtage 10
1 02770U 67040F   24151.49919926  .00000000  00000-0  00000-0 0 21821
2 02770 017.3037 233.2809 7955468 309.8715 220.2443 00.50948945    04

# Worst residual: 8.76 km
# MJD 60461.000000 (2024 May 31  0:00)
1967-040F = NORAD 02770 = Transtage 10
1 02770U 67040F   24152.49919926  .00000000  00000-0  00000-0 0 21822
2 02770 017.3216 233.1980 7956165 309.9878 043.6358 00.50939384    07

# Worst residual: 8.64 km
# MJD 60462.000000 (2024 Jun  1  0:00)
1967-040F = NORAD 02770 = Transtage 10
1 02770U 67040F   24153.49919926  .00000000  00000-0  00000-0 0 21823
2 02770 017.3442 233.0379 7955284 310.1877 226.8877 00.50929236    09

# Worst residual: 11.21 km
# MJD 60463.000000 (2024 Jun  2  0:00)
1967-040F = NORAD 02770 = Transtage 10
1 02770U 67040F   24154.49919926  .00000000  00000-0  00000-0 0 21824
2 02770 017.3672 232.9497 7955703 310.3260 050.2128 00.50943921    02

# Worst residual: 7.06 km
# MJD 60464.000000 (2024 Jun  3  0:00)
1967-040F = NORAD 02770 = Transtage 10
1 02770U 67040F   24155.49919926  .00000000  00000-0  00000-0 0 21825
2 02770 017.3646 232.9242 7951143 310.3951 233.5279 00.50930102    02

# Worst residual: 7.65 km
# MJD 60465.000000 (2024 Jun  4  0:00)
1967-040F = NORAD 02770 = Transtage 10
1 02770U 67040F   24156.49919926  .00000000  00000-0  00000-0 0 21826
2 02770 017.3654 232.8752 7948821 310.4796 056.8298 00.50944511    09

# Worst residual: 6.09 km
# MJD 60466.000000 (2024 Jun  5  0:00)
1967-040F = NORAD 02770 = Transtage 10
1 02770U 67040F   24157.49919926  .00000000  00000-0  00000-0 0 21827
2 02770 017.3610 232.8567 7947034 310.5178 240.2565 00.50950394    07

# Worst residual: 7.81 km
# MJD 60467.000000 (2024 Jun  6  0:00)
1967-040F = NORAD 02770 = Transtage 10
1 02770U 67040F   24158.49919926  .00000000  00000-0  00000-0 0 21828
2 02770 017.3577 232.8062 7944063 310.5851 063.6073 00.50945796    07

# Worst residual: 3.17 km
# MJD 60468.000000 (2024 Jun  7  0:00)
1967-040F = NORAD 02770 = Transtage 10
1 02770U 67040F   24159.49919926  .00000000  00000-0  00000-0 0 21829
2 02770 017.3659 232.7297 7945641 310.6751 247.0176 00.50958150    00

# Worst residual: 7.10 km
# MJD 60469.000000 (2024 Jun  8  0:00)
1967-040F = NORAD 02770 = Transtage 10
1 02770U 67040F   24160.49919926  .00000000  00000-0  00000-0 0 21821
2 02770 017.3706 232.6622 7943538 310.7589 070.4003 00.50949295    04

# Worst residual: 2.81 km
# MJD 60470.000000 (2024 Jun  9  0:00)
1967-040F = NORAD 02770 = Transtage 10
1 02770U 67040F   24161.49919926  .00000000  00000-0  00000-0 0 21822
2 02770 017.3765 232.6007 7945295 310.8423 253.7618 00.50954217    04

# Worst residual: 6.29 km
# MJD 60471.000000 (2024 Jun 10  0:00)
1967-040F = NORAD 02770 = Transtage 10
1 02770U 67040F   24162.49919926  .00000000  00000-0  00000-0 0 21823
2 02770 017.3848 232.5342 7943979 310.9320 077.1433 00.50947231    02

# Worst residual: 3.30 km
# MJD 60472.000000 (2024 Jun 11  0:00)
1967-040F = NORAD 02770 = Transtage 10
1 02770U 67040F   24163.49919926  .00000000  00000-0  00000-0 0 21824
2 02770 017.3798 232.5197 7944366 310.9691 260.5066 00.50947614    01

# Worst residual: 3.97 km
# MJD 60473.000000 (2024 Jun 12  0:00)
1967-040F = NORAD 02770 = Transtage 10
1 02770U 67040F   24164.49919926  .00000000  00000-0  00000-0 0 21825
2 02770 017.3878 232.4572 7943513 311.0584 083.8784 00.50942875    09

# Worst residual: 7.36 km
# MJD 60474.000000 (2024 Jun 13  0:00)
1967-040F = NORAD 02770 = Transtage 10
1 02770U 67040F   24165.49919926  .00000000  00000-0  00000-0 0 21826
2 02770 017.3770 232.4691 7943154 311.0628 267.2777 00.50943632    04

# Worst residual: 5.85 km
# MJD 60475.000000 (2024 Jun 14  0:00)
1967-040F = NORAD 02770 = Transtage 10
1 02770U 67040F   24166.49919926  .00000000  00000-0  00000-0 0 21827
2 02770 017.3846 232.4098 7942642 311.1494 090.6407 00.50938772    09

# Worst residual: 7.96 km
# MJD 60476.000000 (2024 Jun 15  0:00)
1967-040F = NORAD 02770 = Transtage 10
1 02770U 67040F   24167.49919926  .00000000  00000-0  00000-0 0 21828
2 02770 017.3775 232.4074 7942501 311.1624 274.0702 00.50943532    09

# Worst residual: 11.72 km
# MJD 60477.000000 (2024 Jun 16  0:00)
1967-040F = NORAD 02770 = Transtage 10
1 02770U 67040F   24168.49919926  .00000000  00000-0  00000-0 0 21829
2 02770 017.3861 232.3460 7941994 311.2520 097.4270 00.50936372    05
